{
  "type": "FeatureCollection",
  "features": [
    {
      "type": "Feature",
      "properties": {
        "norad_id": 66537,
        "name": "STARLINK-35582",
        "group": "last-30-days",
        "lat": 39.31885259338992,
        "lon": 164.47071753508433,
        "alt_km": 342.1372686207633,
        "timestamp": "2025-12-04T10:51:48.876540+00:00",
        "meta_object_name": "STARLINK-35582",
        "meta_object_id": "2025-265X",
        "meta_epoch": "2025-12-04T04:00:03.000096",
        "meta_mean_motion": 15.75173367,
        "meta_eccentricity": 0.0001138,
        "meta_inclination": 43.0004,
        "meta_ra_of_asc_node": 104.6897,
        "meta_arg_of_pericenter": 270.6804,
        "meta_mean_anomaly": 334.8307,
        "meta_ephemeris_type": 0,
        "meta_classification_type": "U",
        "meta_norad_cat_id": 66537,
        "meta_element_set_no": 999,
        "meta_rev_at_epoch": 361,
        "meta_bstar": -0.014088,
        "meta_mean_motion_dot": -0.01893915,
        "meta_mean_motion_ddot": 0,
        "tle_line1": "1 66537U 25265X   25338.16670139 -.01893915  00000+0 -14088-1 0  9990",
        "tle_line2": "2 66537  43.0004 104.6897 0001138 270.6804 334.8307 15.75173367  3618"
      },
      "geometry": {
        "type": "Point",
        "coordinates": [
          164.47071753508433,
          39.31885259338992
        ]
      }
    },
    {
      "type": "Feature",
      "properties": {
        "norad_id": 66538,
        "name": "STARLINK-35577",
        "group": "last-30-days",
        "lat": 39.923327839483974,
        "lon": 166.8505145322797,
        "alt_km": 342.3305916763211,
        "timestamp": "2025-12-04T10:51:48.876550+00:00",
        "meta_object_name": "STARLINK-35577",
        "meta_object_id": "2025-265Y",
        "meta_epoch": "2025-12-04T04:00:03.000096",
        "meta_mean_motion": 15.75092489,
        "meta_eccentricity": 0.0001367,
        "meta_inclination": 43.0003,
        "meta_ra_of_asc_node": 104.6844,
        "meta_arg_of_pericenter": 265.907,
        "meta_mean_anomaly": 341.5933,
        "meta_ephemeris_type": 0,
        "meta_classification_type": "U",
        "meta_norad_cat_id": 66538,
        "meta_element_set_no": 999,
        "meta_rev_at_epoch": 361,
        "meta_bstar": -0.013518,
        "meta_mean_motion_dot": -0.01821629,
        "meta_mean_motion_ddot": 0,
        "tle_line1": "1 66538U 25265Y   25338.16670139 -.01821629  00000+0 -13518-1 0  9991",
        "tle_line2": "2 66538  43.0003 104.6844 0001367 265.9070 341.5933 15.75092489  3611"
      },
      "geometry": {
        "type": "Point",
        "coordinates": [
          166.8505145322797,
          39.923327839483974
        ]
      }
    },
    {
      "type": "Feature",
      "properties": {
        "norad_id": 66539,
        "name": "STARLINK-35697",
        "group": "last-30-days",
        "lat": 40.470275718286594,
        "lon": 169.23447987051406,
        "alt_km": 342.2018394148372,
        "timestamp": "2025-12-04T10:51:48.876560+00:00",
        "meta_object_name": "STARLINK-35697",
        "meta_object_id": "2025-265Z",
        "meta_epoch": "2025-12-04T04:00:03.000096",
        "meta_mean_motion": 15.75131192,
        "meta_eccentricity": 0.0001262,
        "meta_inclination": 43.0003,
        "meta_ra_of_asc_node": 104.6793,
        "meta_arg_of_pericenter": 249.8858,
        "meta_mean_anomaly": 359.496,
        "meta_ephemeris_type": 0,
        "meta_classification_type": "U",
        "meta_norad_cat_id": 66539,
        "meta_element_set_no": 999,
        "meta_rev_at_epoch": 361,
        "meta_bstar": -0.013782,
        "meta_mean_motion_dot": -0.01855318,
        "meta_mean_motion_ddot": 0,
        "tle_line1": "1 66539U 25265Z   25338.16670139 -.01855318  00000+0 -13782-1 0  9997",
        "tle_line2": "2 66539  43.0003 104.6793 0001262 249.8858 359.4960 15.75131192  3617"
      },
      "geometry": {
        "type": "Point",
        "coordinates": [
          169.23447987051406,
          40.470275718286594
        ]
      }
    },
    {
      "type": "Feature",
      "properties": {
        "norad_id": 66540,
        "name": "STARLINK-35818",
        "group": "last-30-days",
        "lat": 40.974324770349355,
        "lon": 171.69500485988243,
        "alt_km": 342.26184674211436,
        "timestamp": "2025-12-04T10:51:48.876570+00:00",
        "meta_object_name": "STARLINK-35818",
        "meta_object_id": "2025-265AA",
        "meta_epoch": "2025-12-04T04:00:03.000096",
        "meta_mean_motion": 15.75118025,
        "meta_eccentricity": 0.0001635,
        "meta_inclination": 43,
        "meta_ra_of_asc_node": 104.675,
        "meta_arg_of_pericenter": 276.6271,
        "meta_mean_anomaly": 334.6884,
        "meta_ephemeris_type": 0,
        "meta_classification_type": "U",
        "meta_norad_cat_id": 66540,
        "meta_element_set_no": 999,
        "meta_rev_at_epoch": 361,
        "meta_bstar": -0.013748,
        "meta_mean_motion_dot": -0.01850706,
        "meta_mean_motion_ddot": 0,
        "tle_line1": "1 66540U 25265AA  25338.16670139 -.01850706  00000+0 -13748-1 0  9997",
        "tle_line2": "2 66540  43.0000 104.6750 0001635 276.6271 334.6884 15.75118025  3610"
      },
      "geometry": {
        "type": "Point",
        "coordinates": [
          171.69500485988243,
          40.974324770349355
        ]
      }
    },
    {
      "type": "Feature",
      "properties": {
        "norad_id": 66541,
        "name": "STARLINK-35796",
        "group": "last-30-days",
        "lat": 41.42142333305132,
        "lon": 174.1666707414221,
        "alt_km": 342.2435386765965,
        "timestamp": "2025-12-04T10:51:48.876580+00:00",
        "meta_object_name": "STARLINK-35796",
        "meta_object_id": "2025-265AB",
        "meta_epoch": "2025-12-04T04:00:03.000096",
        "meta_mean_motion": 15.75120889,
        "meta_eccentricity": 0.0001629,
        "meta_inclination": 43.0001,
        "meta_ra_of_asc_node": 104.6701,
        "meta_arg_of_pericenter": 272.3102,
        "meta_mean_anomaly": 340.9186,
        "meta_ephemeris_type": 0,
        "meta_classification_type": "U",
        "meta_norad_cat_id": 66541,
        "meta_element_set_no": 999,
        "meta_rev_at_epoch": 361,
        "meta_bstar": -0.013751,
        "meta_mean_motion_dot": -0.01851274,
        "meta_mean_motion_ddot": 0,
        "tle_line1": "1 66541U 25265AB  25338.16670139 -.01851274  00000+0 -13751-1 0  9993",
        "tle_line2": "2 66541  43.0001 104.6701 0001629 272.3102 340.9186 15.75120889  3613"
      },
      "geometry": {
        "type": "Point",
        "coordinates": [
          174.1666707414221,
          41.42142333305132
        ]
      }
    },
    {
      "type": "Feature",
      "properties": {
        "norad_id": 66542,
        "name": "STARLINK-35833",
        "group": "last-30-days",
        "lat": 41.81221173078565,
        "lon": 176.65373222658113,
        "alt_km": 341.7876840225508,
        "timestamp": "2025-12-04T10:51:48.876590+00:00",
        "meta_object_name": "STARLINK-35833",
        "meta_object_id": "2025-265AC",
        "meta_epoch": "2025-12-04T04:00:03.000096",
        "meta_mean_motion": 15.75133775,
        "meta_eccentricity": 9.99e-05,
        "meta_inclination": 43.0002,
        "meta_ra_of_asc_node": 104.6656,
        "meta_arg_of_pericenter": 250.1309,
        "meta_mean_anomaly": 5.0017,
        "meta_ephemeris_type": 0,
        "meta_classification_type": "U",
        "meta_norad_cat_id": 66542,
        "meta_element_set_no": 999,
        "meta_rev_at_epoch": 361,
        "meta_bstar": -0.013827,
        "meta_mean_motion_dot": -0.01860513,
        "meta_mean_motion_ddot": 0,
        "tle_line1": "1 66542U 25265AC  25338.16670139 -.01860513  00000+0 -13827-1 0  9994",
        "tle_line2": "2 66542  43.0002 104.6656 0000999 250.1309   5.0017 15.75133775  3616"
      },
      "geometry": {
        "type": "Point",
        "coordinates": [
          176.65373222658113,
          41.81221173078565
        ]
      }
    },
    {
      "type": "Feature",
      "properties": {
        "norad_id": 66543,
        "name": "STARLINK-35315",
        "group": "last-30-days",
        "lat": 42.152473779874384,
        "lon": 179.20071953363953,
        "alt_km": 341.9942281894246,
        "timestamp": "2025-12-04T10:51:48.876604+00:00",
        "meta_object_name": "STARLINK-35315",
        "meta_object_id": "2025-265AD",
        "meta_epoch": "2025-12-04T04:00:03.000096",
        "meta_mean_motion": 15.75146845,
        "meta_eccentricity": 0.0001432,
        "meta_inclination": 43.0003,
        "meta_ra_of_asc_node": 104.6602,
        "meta_arg_of_pericenter": 271.6681,
        "meta_mean_anomaly": 345.3685,
        "meta_ephemeris_type": 0,
        "meta_classification_type": "U",
        "meta_norad_cat_id": 66543,
        "meta_element_set_no": 999,
        "meta_rev_at_epoch": 350,
        "meta_bstar": -0.013897,
        "meta_mean_motion_dot": -0.01869997,
        "meta_mean_motion_ddot": 0,
        "tle_line1": "1 66543U 25265AD  25338.16670139 -.01869997  00000+0 -13897-1 0  9997",
        "tle_line2": "2 66543  43.0003 104.6602 0001432 271.6681 345.3685 15.75146845  3504"
      },
      "geometry": {
        "type": "Point",
        "coordinates": [
          179.20071953363953,
          42.152473779874384
        ]
      }
    }
  ]
}